STARLINK-30825          
1 58384U 23178L   26068.23913829  .00000712  00000+0  36171-4 0  9999
2 58384  53.1614   3.0548 0001000  72.7100 287.4011 15.30189727129826
TOMORROW-S1             
1 60479U 24149M   26068.72470524  .00008620  00000+0  28856-3 0  9996
2 60479  97.3791 149.6044 0001819 207.2040 152.9106 15.31198362 86867
